NUSAT-48 (HENRIETTA LE*)
1 60498U 24149AG  26068.80506098  .00012988  00000+0  45212-3 0  9999
2 60498  97.3923 150.8264 0002754 263.3026  96.7901 15.29812597 86946
STARLINK-35932          
1 66526U 25265L   26067.63899759  .00041123  00000+0  14946-2 0  9998
2 66526  42.9979 283.7947 0000323 336.7520  23.3317 15.27602763 16950
